NORAD_CAT_ID,OBJECT_NAME,OBJECT_TYPE,EPOCH,MEAN_MOTION,ECCENTRICITY,INCLINATION,RA_OF_ASC_NODE,ARG_OF_PERICENTER,MEAN_ANOMALY,BSTAR,MEAN_MOTION_DOT,MEAN_MOTION_DDOT,TLE_LINE0,TLE_LINE1,TLE_LINE2,SEMIMAJOR_AXIS,PERIOD,APOGEE,PERIGEE,DECAYED
55648.0,STARLINK-5501,PAYLOAD,2024-03-15 18:22:17,14.9833096,0.0002994,69.9989,209.7592,263.6428,96.439,-4.82e-06,-1.51e-06,0.0,0 STARLINK-5501,1 55648U 23021W   24075.76548193 -.00000151  00000-0 -48200-5 0  9995,2 55648  69.9989 209.7592 0002994 263.6428  96.4390 14.98330960 60357,6950.19,96.107,574.136,569.974,0.0
55648.0,STARLINK-5501,PAYLOAD,2024-03-16 11:59:46,14.98327371,0.0002973,69.9996,207.9086,260.0147,100.0677,-1.2628e-05,-2.44e-06,0.0,0 STARLINK-5501,1 55648U 23021W   24076.49984473 -.00000244  00000-0 -12628-4 0  9998,2 55648  69.9996 207.9086 0002973 260.0147 100.0677 14.98327371 60160,6950.201,96.107,574.132,570.0,0.0
55648.0,STARLINK-5501,PAYLOAD,2024-03-16 13:35:54,14.98327502,0.0002977,70.0008,207.7429,259.0722,101.0102,-1.7209e-05,-2.98e-06,0.0,0 STARLINK-5501,1 55648U 23021W   24076.56660504 -.00000298  00000-0 -17209-4 0  9991,2 55648  70.0008 207.7429 0002977 259.0722 101.0102 14.98327502 60471,6950.201,96.107,574.135,569.997,0.0
55648.0,STARLINK-5501,PAYLOAD,2024-03-16 18:24:18,14.98327962,0.0002976,70.0011,207.2389,259.4883,100.5941,-1.3304e-05,-2.52e-06,0.0,0 STARLINK-5501,1 55648U 23021W   24076.76688500 -.00000252  00000-0 -13304-4 0  9991,2 55648  70.0011 207.2389 0002976 259.4883 100.5941 14.98327962 60505,6950.199,96.107,574.133,569.996,0.0
55648.0,STARLINK-5501,PAYLOAD,2024-03-17 12:01:47,14.98330985,0.0003011,70.001,205.3874,261.6401,98.4417,3.7266e-05,3.52e-06,0.0,0 STARLINK-5501,1 55648U 23021W   24077.50124174  .00000352  00000-0  37266-4 0  9998,2 55648  70.0010 205.3874 0003011 261.6401  98.4417 14.98330985 60315,6950.19,96.107,574.148,569.962,0.0
55648.0,STARLINK-5501,PAYLOAD,2024-03-17 13:37:55,14.98328682,0.0003058,70.0008,205.2182,266.4612,93.6197,3.0008e-05,2.65e-06,0.0,0 STARLINK-5501,1 55648U 23021W   24077.56800364  .00000265  00000-0  30008-4 0  9996,2 55648  70.0008 205.2182 0003058 266.4612  93.6197 14.98328682 60628,6950.197,96.107,574.187,569.937,0.0
55648.0,STARLINK-5501,PAYLOAD,2024-03-17 18:26:19,14.98332072,0.0003006,70.0011,204.7143,261.6914,98.3905,4.7361e-05,4.72e-06,0.0,0 STARLINK-5501,1 55648U 23021W   24077.76828061  .00000472  00000-0  47361-4 0  9992,2 55648  70.0011 204.7143 0003006 261.6914  98.3905 14.98332072 60658,6950.186,96.107,574.141,569.962,0.0
55648.0,STARLINK-5501,PAYLOAD,2024-03-18 12:03:48,14.98329211,0.000307,70.0009,202.8615,264.5845,95.4964,3.7911e-05,3.59e-06,0.0,0 STARLINK-5501,1 55648U 23021W   24078.50264222  .00000359  00000-0  37911-4 0  9992,2 55648  70.0009 202.8615 0003070 264.5845  95.4964 14.98329211 60467,6950.195,96.107,574.194,569.927,0.0
55648.0,STARLINK-5501,PAYLOAD,2024-03-19 12:05:48,14.98334775,0.0003029,70.0009,200.3366,265.7229,94.3584,3.224e-05,2.92e-06,0.0,0 STARLINK-5501,1 55648U 23021W   24079.50403766  .00000292  00000-0  32240-4 0  9997,2 55648  70.0009 200.3366 0003029 265.7229  94.3584 14.98334775 60913,6950.178,96.107,574.148,569.938,0.0
55648.0,STARLINK-5501,PAYLOAD,2024-03-19 16:54:12,14.98355699,0.0002699,70.001,199.8318,262.6612,97.4241,-0.00018707,-2.326e-05,0.0,0 STARLINK-5501,1 55648U 23021W   24079.70430885 -.00002326  00000-0 -18707-3 0  9994,2 55648  70.0010 199.8318 0002699 262.6612  97.4241 14.98355699 60640,6950.113,96.105,573.854,570.103,0.0
55648.0,STARLINK-5501,PAYLOAD,2024-03-20 10:31:42,14.98326931,0.00031,70.0006,197.9798,271.3292,88.7512,-2.3109e-05,-3.69e-06,0.0,0 STARLINK-5501,1 55648U 23021W   24080.43868291 -.00000369  00000-0 -23109-4 0  9990,2 55648  70.0006 197.9798 0003100 271.3292  88.7512 14.98326931 60758,6950.202,96.107,574.222,569.913,0.0
55648.0,STARLINK-5501,PAYLOAD,2024-03-20 12:07:50,14.98325303,0.0003301,70.0002,197.8111,274.3815,85.6967,-4.2996e-05,-6.06e-06,0.0,0 STARLINK-5501,1 55648U 23021W   24080.50544483 -.00000606  00000-0 -42996-4 0  9991,2 55648  70.0002 197.8111 0003301 274.3815  85.6967 14.98325303 61066,6950.207,96.107,574.367,569.778,0.0
55648.0,STARLINK-5501,PAYLOAD,2024-03-20 16:56:14,14.98327913,0.0002974,70.0009,197.307,268.8692,91.2126,-7.4588e-06,-1.82e-06,0.0,0 STARLINK-5501,1 55648U 23021W   24080.70572234 -.00000182  00000-0 -74588-5 0  9990,2 55648  70.0009 197.3070 0002974 268.8692  91.2126 14.98327913 61090,6950.199,96.107,574.131,569.997,0.0
55648.0,STARLINK-5501,PAYLOAD,2024-03-21 12:09:50,14.98331901,0.00029,70.0014,195.2882,266.9536,93.1291,-1.1198e-05,-2.27e-06,0.0,0 STARLINK-5501,1 55648U 23021W   24081.50684005 -.00000227  00000-0 -11198-4 0  9996,2 55648  70.0014 195.2882 0002900 266.9536  93.1291 14.98331901 60915,6950.187,96.107,574.068,570.036,0.0
55648.0,STARLINK-5501,PAYLOAD,2024-03-21 16:58:14,14.9833881,0.0002922,70.0011,194.783,268.9361,91.1463,7.9053e-05,8.51e-06,0.0,0 STARLINK-5501,1 55648U 23021W   24081.70711281  .00000851  00000-0  79053-4 0  9990,2 55648  70.0011 194.7830 0002922 268.9361  91.1463 14.98338810 60949,6950.166,96.106,574.061,570.0,0.0
55648.0,STARLINK-5501,PAYLOAD,2024-03-22 13:47:59,14.98333869,0.0002756,70.0012,192.5954,267.3019,92.7825,0.00016045,1.822e-05,0.0,0 STARLINK-5501,1 55648U 23021W   24082.57499076  .00001822  00000-0  16045-3 0  9991,2 55648  70.0012 192.5954 0002756 267.3019  92.7825 14.98333869 61377,6950.181,96.107,573.961,570.13,0.0
55648.0,STARLINK-5501,PAYLOAD,2024-03-22 17:00:14,14.98337674,0.0002705,70.0012,192.2582,260.6859,99.3994,0.00020073,2.303e-05,0.0,0 STARLINK-5501,1 55648U 23021W   24082.70850629  .00002303  00000-0  20073-3 0  9992,2 55648  70.0012 192.2582 0002705 260.6859  99.3994 14.98337674 61090,6950.169,96.107,573.914,570.154,0.0
55648.0,STARLINK-5501,PAYLOAD,2024-03-23 05:49:20,14.98329973,0.0002198,70.0055,190.9148,302.9528,57.1419,5.984e-05,6.21e-06,0.0,0 STARLINK-5501,1 55648U 23021W   24083.24259896  .00000621  00000-0  59840-4 0  9997,2 55648  70.0055 190.9148 0002198 302.9528  57.1419 14.98329973 61175,6950.193,96.107,573.586,570.53,0.0
55648.0,STARLINK-5501,PAYLOAD,2024-03-23 10:37:45,14.9831903,0.0002902,70.0003,190.4057,268.6367,91.446,-0.00010723,-1.372e-05,0.0,0 STARLINK-5501,1 55648U 23021W   24083.44288854 -.00001372  00000-0 -10723-3 0  9997,2 55648  70.0003 190.4057 0002902 268.6367  91.4460 14.98319030 61208,6950.227,96.108,574.109,570.075,0.0
55648.0,STARLINK-5501,PAYLOAD,2024-03-23 17:02:17,14.98325895,0.0002652,70.0013,189.7325,256.4016,103.6848,-6.1346e-05,-8.25e-06,0.0,0 STARLINK-5501,1 55648U 23021W   24083.70992387 -.00000825  00000-0 -61346-4 0  9999,2 55648  70.0013 189.7325 0002652 256.4016 103.6848 14.98325895 61242,6950.206,96.107,573.914,570.227,0.0
55648.0,STARLINK-5501,PAYLOAD,2024-03-24 05:51:21,14.98338832,0.0003015,70.0006,188.3853,264.1068,95.9747,-3.1795e-05,-4.72e-06,0.0,0 STARLINK-5501,1 55648U 23021W   24084.24399475 -.00000472  00000-0 -31795-4 0  9991,2 55648  70.0006 188.3853 0003015 264.1068  95.9747 14.98338832 61327,6950.166,96.106,574.126,569.935,0.0
55648.0,STARLINK-5501,PAYLOAD,2024-03-24 10:39:44,14.98345105,0.0002949,70.0008,187.8815,265.3273,94.7549,7.3843e-05,7.89e-06,0.0,0 STARLINK-5501,1 55648U 23021W   24084.44426813  .00000789  00000-0  73843-4 0  9999,2 55648  70.0008 187.8815 0002949 265.3273  94.7549 14.98345105 61358,6950.146,96.106,574.061,569.962,0.0
55648.0,STARLINK-5501,PAYLOAD,2024-03-24 13:52:00,14.98348022,0.0002904,70.0007,187.5448,262.112,97.9709,0.00010649,1.178e-05,0.0,0 STARLINK-5501,1 55648U 23021W   24084.57778463  .00001178  00000-0  10649-3 0  9991,2 55648  70.0007 187.5448 0002904 262.1120  97.9709 14.98348022 61672,6950.137,96.106,574.02,569.984,0.0
55648.0,STARLINK-5501,PAYLOAD,2024-03-24 17:04:15,14.98359868,0.0002734,70.0012,187.2084,261.2178,98.8672,0.00026307,3.05e-05,0.0,0 STARLINK-5501,1 55648U 23021W   24084.71129355  .00003050  00000-0  26307-3 0  9996,2 55648  70.0012 187.2084 0002734 261.2178  98.8672 14.98359868 61393,6950.101,96.105,573.866,570.065,0.0
55648.0,STARLINK-5501,PAYLOAD,2024-03-25 05:53:22,14.98331936,0.0002115,70.002,185.8596,276.3521,83.7397,0.0002002,2.297e-05,0.0,0 STARLINK-5501,1 55648U 23021W   24085.24539626  .00002297  00000-0  20020-3 0  9999,2 55648  70.0020 185.8596 0002115 276.3521  83.7397 14.98331936 61478,6950.187,96.107,573.522,570.582,0.0
55648.0,STARLINK-5501,PAYLOAD,2024-03-25 17:06:19,14.98323563,0.000225,70.0021,184.6856,259.4253,100.6653,0.00018221,2.081e-05,0.0,0 STARLINK-5501,1 55648U 23021W   24085.71272200  .00002081  00000-0  18221-3 0  9994,2 55648  70.0021 184.6856 0002250 259.4253 100.6653 14.98323563 61548,6950.213,96.107,573.642,570.514,0.0
55648.0,STARLINK-5501,PAYLOAD,2024-03-26 12:19:57,14.98319127,0.0002839,70.0007,182.6635,269.4224,90.661,-0.00027236,-3.34e-05,0.0,0 STARLINK-5501,1 55648U 23021W   24086.51385706 -.00003340  00000-0 -27236-3 0  9996,2 55648  70.0007 182.6635 0002839 269.4224  90.6610 14.98319127 61662,6950.227,96.108,574.065,570.118,0.0
55648.0,STARLINK-5501,PAYLOAD,2024-03-26 13:56:05,14.98316765,0.0002477,70.0019,182.4966,255.94,104.1484,-0.00026844,-3.293e-05,0.0,0 STARLINK-5501,1 55648U 23021W   24086.58061859 -.00003293  00000-0 -26844-3 0  9994,2 55648  70.0019 182.4966 0002477 255.9400 104.1484 14.98316765 61973,6950.234,96.108,573.82,570.377,0.0
55648.0,STARLINK-5501,PAYLOAD,2024-03-26 15:32:13,14.98316695,0.00025,70.0018,182.3283,257.0222,103.0658,-0.00026531,-3.256e-05,0.0,0 STARLINK-5501,1 55648U 23021W   24086.64737905 -.00003256  00000-0 -26531-3 0  9995,2 55648  70.0018 182.3283 0002500 257.0222 103.0658 14.98316695 61989,6950.234,96.108,573.837,570.361,0.0
55648.0,STARLINK-5501,PAYLOAD,2024-03-26 23:32:53,14.9833461,0.0003038,70.001,181.4839,284.9184,75.1638,-0.00027206,-3.338e-05,0.0,0 STARLINK-5501,1 55648U 23021W   24086.98116956 -.00003338  00000-0 -27206-3 0  9990,2 55648  70.0010 181.4839 0003038 284.9184  75.1638 14.98334610 61738,6950.179,96.107,574.155,569.932,0.0
